[{"OBJECT_NAME":"ICEYE-X56","OBJECT_ID":"2025-135AY","EPOCH":"2026-03-09T22:14:12.015744","MEAN_MOTION":14.94928364,"ECCENTRICITY":7.492e-5,"INCLINATION":97.761,"RA_OF_ASC_NODE":184.784,"ARG_OF_PERICENTER":334.2074,"MEAN_ANOMALY":25.9109,"EPHEMERIS_TYPE":0,"CLASSIFICATION_TYPE":"U","NORAD_CAT_ID":64574,"ELEMENT_SET_NO":999,"REV_AT_EPOCH":3909,"BSTAR":0.000532844,"MEAN_MOTION_DOT":5.76e-5,"MEAN_MOTION_DDOT":0},{"OBJECT_NAME":"PSLV R\/B","OBJECT_ID":"2018-071C","EPOCH":"2026-03-09T22:40:07.416192","MEAN_MOTION":15.00058604,"ECCENTRICITY":0.00237177,"INCLINATION":97.444,"RA_OF_ASC_NODE":249.6196,"ARG_OF_PERICENTER":104.8167,"MEAN_ANOMALY":255.5687,"EPHEMERIS_TYPE":0,"CLASSIFICATION_TYPE":"U","NORAD_CAT_ID":43620,"ELEMENT_SET_NO":999,"REV_AT_EPOCH":40754,"BSTAR":0.00020356401,"MEAN_MOTION_DOT":2.493e-5,"MEAN_MOTION_DDOT":0}]
